QZS-1R                  
1 49336U 21096A   24249.88978834 -.00000249  00000+0  00000+0 0  9993
2 49336  36.1082  89.3043 0742705 269.5415  80.6106  1.00295356 10497
